0 FENGYUN 1C DEB
1 31521U 99025BXL 13294.28755799  .00004451  00000-0  17711-2 0  3333
2 31521 098.8308 313.0541 0088414 335.5641 057.2973 14.27040867336272
